NORAD_CAT_ID,OBJECT_NAME,OBJECT_TYPE,EPOCH,MEAN_MOTION,ECCENTRICITY,INCLINATION,RA_OF_ASC_NODE,ARG_OF_PERICENTER,MEAN_ANOMALY,BSTAR,MEAN_MOTION_DOT,MEAN_MOTION_DDOT,TLE_LINE0,TLE_LINE1,TLE_LINE2,SEMIMAJOR_AXIS,PERIOD,APOGEE,PERIGEE,DECAYED
51959.0,STARLINK-3704,PAYLOAD,2024-05-30 22:25:50,15.04773572,0.0001367,53.0562,63.0935,88.0926,272.0219,0.00016341,2.053e-05,0.0,0 STARLINK-3704,1 51959U 22025D   24151.93460832  .00002053  00000-0  16341-3 0  9996,2 51959  53.0562  63.0935 0001367  88.0926 272.0219 15.04773572123222,6930.338,95.695,553.15,551.255,0.0
51959.0,STARLINK-3704,PAYLOAD,2024-05-31 03:12:45,15.04779166,0.0001442,53.0566,62.202,90.8917,269.2237,0.00023642,3.096e-05,0.0,0 STARLINK-3704,1 51959U 22025D   24152.13386066  .00003096  00000-0  23642-3 0  9995,2 51959  53.0566  62.2020 0001442  90.8917 269.2237 15.04779166123253,6930.321,95.695,553.185,551.186,0.0
51959.0,STARLINK-3704,PAYLOAD,2024-05-31 22:20:29,15.04767869,0.0001407,53.0558,58.6335,85.4012,274.7136,0.00010032,1.153e-05,0.0,0 STARLINK-3704,1 51959U 22025D   24152.93089312  .00001153  00000-0  10032-3 0  9998,2 51959  53.0558  58.6335 0001407  85.4012 274.7136 15.04767869123378,6930.355,95.696,553.195,551.245,0.0
51959.0,STARLINK-3704,PAYLOAD,2024-06-01 03:07:24,15.04778423,0.0001284,53.0544,57.7408,84.6301,275.4833,5.7652e-05,5.45e-06,0.0,0 STARLINK-3704,1 51959U 22025D   24153.13014222  .00000545  00000-0  57652-4 0  9993,2 51959  53.0544  57.7408 0001284  84.6301 275.4833 15.04778423124493,6930.323,95.695,553.078,551.298,0.0
51959.0,STARLINK-3704,PAYLOAD,2024-06-01 11:05:35,15.04807995,0.0001293,53.0566,56.2528,74.1391,285.974,-0.00034355,-5.176e-05,0.0,0 STARLINK-3704,1 51959U 22025D   24153.46221914 -.00005176  00000-0 -34355-3 0  9998,2 51959  53.0566  56.2528 0001293  74.1391 285.9740 15.04807995124543,6930.232,95.693,552.993,551.201,0.0
51959.0,STARLINK-3704,PAYLOAD,2024-06-01 17:28:10,15.04783341,0.0001496,53.0558,55.0631,103.111,257.0045,0.00017475,2.216e-05,0.0,0 STARLINK-3704,1 51959U 22025D   24153.72790219  .00002216  00000-0  17475-3 0  9990,2 51959  53.0558  55.0631 0001496 103.1110 257.0045 15.04783341124583,6930.308,95.695,553.21,551.136,0.0
51959.0,STARLINK-3704,PAYLOAD,2024-06-02 03:02:01,15.04794972,0.0001322,53.0539,53.2797,96.6302,263.4837,0.00028187,3.746e-05,0.0,0 STARLINK-3704,1 51959U 22025D   24154.12640640  .00003746  00000-0  28187-3 0  9998,2 51959  53.0539  53.2797 0001322  96.6302 263.4837 15.04794972124641,6930.272,95.694,553.053,551.221,0.0
51959.0,STARLINK-3704,PAYLOAD,2024-06-03 04:32:22,15.04742814,0.0001382,53.0535,48.5233,92.7302,267.3845,-0.00030897,-4.676e-05,0.0,0 STARLINK-3704,1 51959U 22025D   24155.18914692 -.00004676  00000-0 -30897-3 0  9992,2 51959  53.0535  48.5233 0001382  92.7302 267.3845 15.04742814124800,6930.432,95.697,553.255,551.339,0.0
51959.0,STARLINK-3704,PAYLOAD,2024-06-04 02:51:22,15.04761029,0.0001325,53.0526,44.3571,87.3878,272.7262,0.00036486,4.927e-05,0.0,0 STARLINK-3704,1 51959U 22025D   24156.11900559  .00004927  00000-0  36486-3 0  9990,2 51959  53.0526  44.3571 0001325  87.3878 272.7262 15.04761029124941,6930.376,95.696,553.16,551.323,0.0
51959.0,STARLINK-3704,PAYLOAD,2024-06-04 09:13:56,15.04769651,0.0001619,53.0568,43.1691,88.3279,271.7895,0.0006136,8.481e-05,0.0,0 STARLINK-3704,1 51959U 22025D   24156.38468077  .00008481  00000-0  61360-3 0  9991,2 51959  53.0568  43.1691 0001619  88.3279 271.7895 15.04769651123892,6930.35,95.696,553.337,551.093,0.0
51959.0,STARLINK-3704,PAYLOAD,2024-06-04 23:34:43,15.04784039,0.0001444,53.0563,40.492,91.9325,268.1829,0.00075364,0.00010487,0.0,0 STARLINK-3704,1 51959U 22025D   24156.98244791  .00010487  00000-0  75364-3 0  9990,2 51959  53.0563  40.4920 0001444  91.9325 268.1829 15.04784039125076,6930.306,95.695,553.171,551.17,0.0
51959.0,STARLINK-3704,PAYLOAD,2024-06-05 09:08:35,15.04780679,0.0001833,53.0546,38.7086,83.3841,276.7355,0.00036125,4.878e-05,0.0,0 STARLINK-3704,1 51959U 22025D   24157.38096182  .00004878  00000-0  36125-3 0  9993,2 51959  53.0546  38.7086 0001833  83.3841 276.7355 15.04780679125132,6930.316,95.695,553.451,550.911,0.0
51959.0,STARLINK-3704,PAYLOAD,2024-06-06 09:03:13,15.0477152,0.0002198,53.0559,34.2487,85.0045,275.1195,-2.3785e-06,-3.11e-06,0.0,0 STARLINK-3704,1 51959U 22025D   24158.37724462 -.00000311  00000-0 -23785-5 0  9992,2 51959  53.0559  34.2487 0002198  85.0045 275.1195 15.04771520125288,6930.344,95.696,553.732,550.686,0.0
51959.0,STARLINK-3704,PAYLOAD,2024-06-07 15:20:27,15.04772271,0.0001614,53.0545,28.599,82.7856,277.3315,0.00041268,5.611e-05,0.0,0 STARLINK-3704,1 51959U 22025D   24159.63920170  .00005611  00000-0  41268-3 0  9996,2 51959  53.0545  28.5990 0001614  82.7856 277.3315 15.04772271124386,6930.342,95.696,553.325,551.088,0.0
51959.0,STARLINK-3704,PAYLOAD,2024-06-07 21:43:00,15.04780198,0.0001322,53.0506,27.409,92.5319,267.5821,0.00052399,7.203e-05,0.0,0 STARLINK-3704,1 51959U 22025D   24159.90487234  .00007203  00000-0  52399-3 0  9991,2 51959  53.0506  27.4090 0001322  92.5319 267.5821 15.04780198125517,6930.317,95.695,553.099,551.266,0.0
51959.0,STARLINK-3704,PAYLOAD,2024-06-08 00:54:17,15.0478899,0.0001416,53.0548,26.811,105.9768,254.1377,0.00081288,0.00011336,0.0,0 STARLINK-3704,1 51959U 22025D   24160.03770641  .00011336  00000-0  81288-3 0  9995,2 51959  53.0548  26.8110 0001416 105.9768 254.1377 15.04788990124447,6930.29,95.694,553.137,551.174,0.0
51959.0,STARLINK-3704,PAYLOAD,2024-06-08 21:37:39,15.0477929,0.0001594,53.0547,22.9463,86.9244,273.1927,0.00028747,3.824e-05,0.0,0 STARLINK-3704,1 51959U 22025D   24160.90115111  .00003824  00000-0  28747-3 0  9990,2 51959  53.0547  22.9463 0001594  86.9244 273.1927 15.04779290125668,6930.32,95.695,553.29,551.081,0.0
51959.0,STARLINK-3704,PAYLOAD,2024-06-09 15:09:44,15.0475976,0.000121,53.0563,19.6733,100.7387,259.3737,-3.0612e-05,-7.13e-06,0.0,0 STARLINK-3704,1 51959U 22025D   24161.63176053 -.00000713  00000-0 -30612-4 0  9994,2 51959  53.0563  19.6733 0001210 100.7387 259.3737 15.04759760124683,6930.38,95.696,553.084,551.407,0.0
51959.0,STARLINK-3704,PAYLOAD,2024-06-09 21:32:18,15.04755162,8.91e-05,53.0563,18.4843,78.2568,281.852,0.00075463,0.00010493,0.0,0 STARLINK-3704,1 51959U 22025D   24161.89744106  .00010493  00000-0  75463-3 0  9998,2 51959  53.0563  18.4843 0000891  78.2568 281.8520 15.04755162125814,6930.394,95.697,552.877,551.642,0.0
51959.0,STARLINK-3704,PAYLOAD,2024-06-10 07:06:10,15.04766668,0.0001279,53.0549,16.7004,88.6629,271.4506,0.0008358,0.00011657,0.0,0 STARLINK-3704,1 51959U 22025D   24162.29595437  .00011657  00000-0  83580-3 0  9996,2 51959  53.0549  16.7004 0001279  88.6629 271.4506 15.04766668124789,6930.359,95.696,553.11,551.338,0.0
51959.0,STARLINK-3704,PAYLOAD,2024-06-10 21:26:57,15.04777814,0.0001394,53.0558,14.0246,94.8681,265.2466,0.00073784,0.00010259,0.0,0 STARLINK-3704,1 51959U 22025D   24162.89372190  .00010259  00000-0  73784-3 0  9993,2 51959  53.0558  14.0246 0001394  94.8681 265.2466 15.04777814124874,6930.325,95.695,553.156,551.224,0.0
51959.0,STARLINK-3704,PAYLOAD,2024-06-10 23:02:36,15.0478143,0.0001451,53.0561,13.7276,96.5659,263.5495,0.00084142,0.00011742,0.0,0 STARLINK-3704,1 51959U 22025D   24162.96013992  .00011742  00000-0  84142-3 0  9991,2 51959  53.0561  13.7276 0001451  96.5659 263.5495 15.04781430125979,6930.314,95.695,553.184,551.173,0.0
51959.0,STARLINK-3704,PAYLOAD,2024-06-11 07:00:48,15.04775071,0.0001461,53.0568,12.2386,95.6262,264.4893,0.00028799,3.831e-05,0.0,0 STARLINK-3704,1 51959U 22025D   24163.29223301  .00003831  00000-0  28799-3 0  9991,2 51959  53.0568  12.2386 0001461  95.6262 264.4893 15.04775071124934,6930.333,95.695,553.211,551.186,0.0
51959.0,STARLINK-3704,PAYLOAD,2024-06-11 22:57:14,15.04781983,0.0001436,53.055,9.266,99.6774,260.4376,0.00037197,5.031e-05,0.0,0 STARLINK-3704,1 51959U 22025D   24163.95641619  .00005031  00000-0  37197-3 0  9996,2 51959  53.0550   9.2660 0001436  99.6774 260.4376 15.04781983126124,6930.312,95.695,553.172,551.182,0.0
51959.0,STARLINK-3704,PAYLOAD,2024-06-12 06:55:27,15.04770134,0.0001437,53.0559,7.7796,88.2739,271.8414,3.5257e-05,2.26e-06,0.0,0 STARLINK-3704,1 51959U 22025D   24164.28851282  .00000226  00000-0  35257-4 0  9999,2 51959  53.0559   7.7796 0001437  88.2739 271.8414 15.04770134126172,6930.348,95.696,553.209,551.217,0.0
51959.0,STARLINK-3704,PAYLOAD,2024-06-12 19:40:36,15.04765511,0.0001605,53.0571,5.3959,93.0902,267.027,-4.5001e-05,-9.19e-06,0.0,0 STARLINK-3704,1 51959U 22025D   24164.81986600 -.00000919  00000-0 -45001-4 0  9990,2 51959  53.0571   5.3959 0001605  93.0902 267.0270 15.04765511125162,6930.363,95.696,553.34,551.115,0.0
51959.0,STARLINK-3704,PAYLOAD,2024-06-13 06:50:06,15.04772349,0.0001588,53.0571,3.3152,89.8182,270.2988,4.8108e-05,4.09e-06,0.0,0 STARLINK-3704,1 51959U 22025D   24165.28479571  .00000409  00000-0  48108-4 0  9999,2 51959  53.0571   3.3152 0001588  89.8182 270.2988 15.04772349125235,6930.342,95.696,553.307,551.106,0.0
51959.0,STARLINK-3704,PAYLOAD,2024-06-13 19:35:14,15.04777509,0.0001349,53.0558,0.9344,100.7656,259.3484,0.00010691,1.248e-05,0.0,0 STARLINK-3704,1 51959U 22025D   24165.81614160  .00001248  00000-0  10691-3 0  9990,2 51959  53.0558   0.9344 0001349 100.7656 259.3484 15.04777509125311,6930.326,95.695,553.126,551.256,0.0
51959.0,STARLINK-3704,PAYLOAD,2024-06-14 13:07:19,15.04764849,0.0001675,53.0571,357.6591,104.0797,256.0377,0.0001133,1.338e-05,0.0,0 STARLINK-3704,1 51959U 22025D   24166.54675586  .00001338  00000-0  11330-3 0  9991,2 51959  53.0571 357.6591 0001675 104.0797 256.0377 15.04764849125427,6930.365,95.696,553.39,551.069,0.0
51959.0,STARLINK-3704,PAYLOAD,2024-06-14 19:29:54,15.04765648,0.0001215,53.0549,356.4741,84.3725,275.7402,0.00017687,2.245e-05,0.0,0 STARLINK-3704,1 51959U 22025D   24166.81243223  .00002245  00000-0  17687-3 0  9999,2 51959  53.0549 356.4741 0001215  84.3725 275.7402 15.04765648125466,6930.362,95.696,553.069,551.385,0.0
